IRIDIUM 126             
1 42809U 17039G   24144.88119118  .00000430  00000+0  14665-3 0  9996
2 42809  86.3938 308.8677 0002160  84.2054 275.9388 14.34217162361837
IRIDIUM 124             
1 42810U 17039H   24144.80219331  .00000931  00000+0  27089-3 0  9998
2 42810  86.4508 245.6115 0002020 103.2312 256.9114 14.43259702366301
IRIDIUM 121             
1 42812U 17039K   24144.83044983  .00000027  00000+0  25642-5 0  9993
2 42812  86.3939 308.9116 0002084  91.1261 269.0174 14.34215077361709
IRIDIUM 133             
1 42955U 17061A   24144.83385281  .00000597  00000+0  20597-3 0  9999
2 42955  86.3965 340.5152 0002096  84.4033 275.7402 14.34225416346656
IRIDIUM 100             
1 42956U 17061B   24144.61820971  .00000566  00000+0  19484-3 0  9995
2 42956  86.3963 340.5416 0002111  85.0945 275.0491 14.34226382346626
IRIDIUM 122             
1 42957U 17061C   24144.09810226  .00000573  00000+0  19752-3 0  9996
2 42957  86.3963 340.7574 0002129  86.9467 273.1972 14.34224863346559
